[{"OBJECT_NAME":"OBJECT K","OBJECT_ID":"2024-205K","EPOCH":"2026-03-09T22:22:01.331040","MEAN_MOTION":15.27932792,"ECCENTRICITY":0.00106729,"INCLINATION":97.417,"RA_OF_ASC_NODE":146.2172,"ARG_OF_PERICENTER":37.4736,"MEAN_ANOMALY":322.7246,"EPHEMERIS_TYPE":0,"CLASSIFICATION_TYPE":"U","NORAD_CAT_ID":61903,"ELEMENT_SET_NO":999,"REV_AT_EPOCH":7347,"BSTAR":0.00067315144,"MEAN_MOTION_DOT":0.00018331,"MEAN_MOTION_DDOT":0},{"OBJECT_NAME":"STARLINK-34615","OBJECT_ID":"2025-253C","EPOCH":"2026-03-09T10:03:19.471968","MEAN_MOTION":15.27600643,"ECCENTRICITY":0.00015165,"INCLINATION":42.9927,"RA_OF_ASC_NODE":213.96,"ARG_OF_PERICENTER":149.7735,"MEAN_ANOMALY":210.3204,"EPHEMERIS_TYPE":0,"CLASSIFICATION_TYPE":"U","NORAD_CAT_ID":66321,"ELEMENT_SET_NO":999,"REV_AT_EPOCH":2020,"BSTAR":0.0010533718,"MEAN_MOTION_DOT":0.00028856,"MEAN_MOTION_DDOT":0}]
